[{"OBJECT_NAME":"ION SCV-010","OBJECT_ID":"2023-054Q","EPOCH":"2026-03-09T16:02:35.904768","MEAN_MOTION":15.25210322,"ECCENTRICITY":0.00127052,"INCLINATION":97.3904,"RA_OF_ASC_NODE":319.4312,"ARG_OF_PERICENTER":188.785,"MEAN_ANOMALY":171.3168,"EPHEMERIS_TYPE":0,"CLASSIFICATION_TYPE":"U","NORAD_CAT_ID":56192,"ELEMENT_SET_NO":999,"REV_AT_EPOCH":16102,"BSTAR":0.00025045068,"MEAN_MOTION_DOT":6.231e-5,"MEAN_MOTION_DDOT":0},{"OBJECT_NAME":"STARLINK-31001","OBJECT_ID":"2023-191V","EPOCH":"2026-03-09T02:33:56.668896","MEAN_MOTION":15.26736187,"ECCENTRICITY":0.00016176,"INCLINATION":43.0014,"RA_OF_ASC_NODE":106.5046,"ARG_OF_PERICENTER":286.3592,"MEAN_ANOMALY":73.7082,"EPHEMERIS_TYPE":0,"CLASSIFICATION_TYPE":"U","NORAD_CAT_ID":58527,"ELEMENT_SET_NO":999,"REV_AT_EPOCH":12538,"BSTAR":0.00027286212,"MEAN_MOTION_DOT":7.065e-5,"MEAN_MOTION_DDOT":0}]
